[
    {
        "OBJECT_NAME": "COSMOS 2374 [GLONASS]",
        "OBJECT_ID": "2000-063C",
        "EPOCH": "2026-07-21T05:54:21.360384",
        "MEAN_MOTION": 2.13099753,
        "ECCENTRICITY": 0.0079507,
        "INCLINATION": 65.154,
        "RA_OF_ASC_NODE": 312.4075,
        "ARG_OF_PERICENTER": 208.7174,
        "MEAN_ANOMALY": 149.6248,
        "EPHEMERIS_TYPE": 0,
        "CLASSIFICATION_TYPE": "U",
        "NORAD_CAT_ID": 26566,
        "ELEMENT_SET_NO": 999,
        "REV_AT_EPOCH": 20047,
        "BSTAR": 0,
        "MEAN_MOTION_DOT": -8.7e-07,
        "MEAN_MOTION_DDOT": 0
    },
    {
        "OBJECT_NAME": "COSMOS 2382 [GLONASS-M]",
        "OBJECT_ID": "2001-053A",
        "EPOCH": "2026-07-18T04:07:25.802688",
        "MEAN_MOTION": 2.13104895,
        "ECCENTRICITY": 0.0003157,
        "INCLINATION": 64.1069,
        "RA_OF_ASC_NODE": 56.3467,
        "ARG_OF_PERICENTER": 200.5961,
        "MEAN_ANOMALY": 340.8377,
        "EPHEMERIS_TYPE": 0,
        "CLASSIFICATION_TYPE": "U",
        "NORAD_CAT_ID": 26987,
        "ELEMENT_SET_NO": 999,
        "REV_AT_EPOCH": 19161,
        "BSTAR": 0,
        "MEAN_MOTION_DOT": -4.6e-07,
        "MEAN_MOTION_DDOT": 0
    },
    {
        "OBJECT_NAME": "COSMOS 2381 [GLONASS]",
        "OBJECT_ID": "2001-053B",
        "EPOCH": "2026-07-19T00:05:07.697184",
        "MEAN_MOTION": 2.1310378,
        "ECCENTRICITY": 0.00452335,
        "INCLINATION": 64.1098,
        "RA_OF_ASC_NODE": 56.3449,
        "ARG_OF_PERICENTER": 228.4205,
        "MEAN_ANOMALY": 316.506,
        "EPHEMERIS_TYPE": 0,
        "CLASSIFICATION_TYPE": "U",
        "NORAD_CAT_ID": 26988,
        "ELEMENT_SET_NO": 999,
        "REV_AT_EPOCH": 19170,
        "BSTAR": 0,
        "MEAN_MOTION_DOT": -5.2e-07,
        "MEAN_MOTION_DDOT": 0
    },
    {
        "OBJECT_NAME": "COSMOS 2380 [GLONASS]",
        "OBJECT_ID": "2001-053C",
        "EPOCH": "2026-07-22T00:52:38.777952",
        "MEAN_MOTION": 2.13102841,
        "ECCENTRICITY": 0.00068501,
        "INCLINATION": 64.1063,
        "RA_OF_ASC_NODE": 56.1882,
        "ARG_OF_PERICENTER": 47.9335,
        "MEAN_ANOMALY": 129.5442,
        "EPHEMERIS_TYPE": 0,
        "CLASSIFICATION_TYPE": "U",
        "NORAD_CAT_ID": 26989,
        "ELEMENT_SET_NO": 999,
        "REV_AT_EPOCH": 19175,
        "BSTAR": 0,
        "MEAN_MOTION_DOT": -5.3e-07,
        "MEAN_MOTION_DDOT": 0
    },
    {
        "OBJECT_NAME": "COSMOS 2394 [GLONASS]",
        "OBJECT_ID": "2002-060A",
        "EPOCH": "2026-07-21T20:24:51.386400",
        "MEAN_MOTION": 2.13102581,
        "ECCENTRICITY": 0.00011547,
        "INCLINATION": 65.4056,
        "RA_OF_ASC_NODE": 314.4841,
        "ARG_OF_PERICENTER": 298.4185,
        "MEAN_ANOMALY": 61.5881,
        "EPHEMERIS_TYPE": 0,
        "CLASSIFICATION_TYPE": "U",
        "NORAD_CAT_ID": 27617,
        "ELEMENT_SET_NO": 999,
        "REV_AT_EPOCH": 18346,
        "BSTAR": 0,
        "MEAN_MOTION_DOT": -9e-07,
        "MEAN_MOTION_DDOT": 0
    },
    {
        "OBJECT_NAME": "COSMOS 2396 [GLONASS]",
        "OBJECT_ID": "2002-060B",
        "EPOCH": "2026-07-20T09:04:45.825024",
        "MEAN_MOTION": 2.13099995,
        "ECCENTRICITY": 0.00033266,
        "INCLINATION": 65.4089,
        "RA_OF_ASC_NODE": 314.5307,
        "ARG_OF_PERICENTER": 166.8266,
        "MEAN_ANOMALY": 187.7918,
        "EPHEMERIS_TYPE": 0,
        "CLASSIFICATION_TYPE": "U",
        "NORAD_CAT_ID": 27618,
        "ELEMENT_SET_NO": 999,
        "REV_AT_EPOCH": 18331,
        "BSTAR": 0,
        "MEAN_MOTION_DOT": -8.4e-07,
        "MEAN_MOTION_DDOT": 0
    },
    {
        "OBJECT_NAME": "COSMOS 2395 [GLONASS]",
        "OBJECT_ID": "2002-060C",
        "EPOCH": "2026-07-21T06:57:23.596416",
        "MEAN_MOTION": 2.1310347,
        "ECCENTRICITY": 0.00128037,
        "INCLINATION": 65.4218,
        "RA_OF_ASC_NODE": 314.6399,
        "ARG_OF_PERICENTER": 243.5826,
        "MEAN_ANOMALY": 120.3871,
        "EPHEMERIS_TYPE": 0,
        "CLASSIFICATION_TYPE": "U",
        "NORAD_CAT_ID": 27619,
        "ELEMENT_SET_NO": 999,
        "REV_AT_EPOCH": 18337,
        "BSTAR": 0,
        "MEAN_MOTION_DOT": -8.8e-07,
        "MEAN_MOTION_DDOT": 0
    },
    {
        "OBJECT_NAME": "COSMOS 2404 [GLONASS-M]",
        "OBJECT_ID": "2003-056A",
        "EPOCH": "2026-07-17T19:17:16.179072",
        "MEAN_MOTION": 2.13088293,
        "ECCENTRICITY": 0.00503053,
        "INCLINATION": 64.2759,
        "RA_OF_ASC_NODE": 61.0047,
        "ARG_OF_PERICENTER": 69.5251,
        "MEAN_ANOMALY": 131.5766,
        "EPHEMERIS_TYPE": 0,
        "CLASSIFICATION_TYPE": "U",
        "NORAD_CAT_ID": 28112,
        "ELEMENT_SET_NO": 999,
        "REV_AT_EPOCH": 17587,
        "BSTAR": 0,
        "MEAN_MOTION_DOT": -3.9e-07,
        "MEAN_MOTION_DDOT": 0
    },
    {
        "OBJECT_NAME": "COSMOS 2402 [GLONASS]",
        "OBJECT_ID": "2003-056B",
        "EPOCH": "2026-07-21T12:40:26.008320",
        "MEAN_MOTION": 2.13105012,
        "ECCENTRICITY": 0.00517338,
        "INCLINATION": 64.2936,
        "RA_OF_ASC_NODE": 60.9859,
        "ARG_OF_PERICENTER": 72.65,
        "MEAN_ANOMALY": 297.3318,
        "EPHEMERIS_TYPE": 0,
        "CLASSIFICATION_TYPE": "U",
        "NORAD_CAT_ID": 28113,
        "ELEMENT_SET_NO": 999,
        "REV_AT_EPOCH": 17598,
        "BSTAR": 0,
        "MEAN_MOTION_DOT": -5.5e-07,
        "MEAN_MOTION_DDOT": 0
    },
    {
        "OBJECT_NAME": "COSMOS 2403 [GLONASS]",
        "OBJECT_ID": "2003-056C",
        "EPOCH": "2026-07-17T04:11:23.718912",
        "MEAN_MOTION": 2.13104517,
        "ECCENTRICITY": 0.0061949,
        "INCLINATION": 64.2945,
        "RA_OF_ASC_NODE": 61.1921,
        "ARG_OF_PERICENTER": 63.6173,
        "MEAN_ANOMALY": 114.4599,
        "EPHEMERIS_TYPE": 0,
        "CLASSIFICATION_TYPE": "U",
        "NORAD_CAT_ID": 28114,
        "ELEMENT_SET_NO": 999,
        "REV_AT_EPOCH": 17588,
        "BSTAR": 0,
        "MEAN_MOTION_DOT": -3.3e-07,
        "MEAN_MOTION_DDOT": 0
    },
    {
        "OBJECT_NAME": "COSMOS 2411 [GLONASS]",
        "OBJECT_ID": "2004-053A",
        "EPOCH": "2026-07-20T07:31:38.549568",
        "MEAN_MOTION": 2.13103546,
        "ECCENTRICITY": 0.00048945,
        "INCLINATION": 64.235,
        "RA_OF_ASC_NODE": 59.0767,
        "ARG_OF_PERICENTER": 233.1881,
        "MEAN_ANOMALY": 305.9634,
        "EPHEMERIS_TYPE": 0,
        "CLASSIFICATION_TYPE": "U",
        "NORAD_CAT_ID": 28508,
        "ELEMENT_SET_NO": 999,
        "REV_AT_EPOCH": 16783,
        "BSTAR": 0,
        "MEAN_MOTION_DOT": -5.6e-07,
        "MEAN_MOTION_DDOT": 0
    },
    {
        "OBJECT_NAME": "COSMOS 2413 [GLONASS-M]",
        "OBJECT_ID": "2004-053B",
        "EPOCH": "2026-07-16T03:02:53.759040",
        "MEAN_MOTION": 2.13096898,
        "ECCENTRICITY": 0.00030764,
        "INCLINATION": 64.2287,
        "RA_OF_ASC_NODE": 59.1693,
        "ARG_OF_PERICENTER": 245.7677,
        "MEAN_ANOMALY": 298.2964,
        "EPHEMERIS_TYPE": 0,
        "CLASSIFICATION_TYPE": "U",
        "NORAD_CAT_ID": 28509,
        "ELEMENT_SET_NO": 999,
        "REV_AT_EPOCH": 16773,
        "BSTAR": 0,
        "MEAN_MOTION_DOT": -2.6e-07,
        "MEAN_MOTION_DDOT": 0
    },
    {
        "OBJECT_NAME": "COSMOS 2412 [GLONASS]",
        "OBJECT_ID": "2004-053C",
        "EPOCH": "2026-07-21T05:53:52.658304",
        "MEAN_MOTION": 2.1310321,
        "ECCENTRICITY": 0.0006004,
        "INCLINATION": 64.2407,
        "RA_OF_ASC_NODE": 59.1195,
        "ARG_OF_PERICENTER": 237.4714,
        "MEAN_ANOMALY": 323.9937,
        "EPHEMERIS_TYPE": 0,
        "CLASSIFICATION_TYPE": "U",
        "NORAD_CAT_ID": 28510,
        "ELEMENT_SET_NO": 999,
        "REV_AT_EPOCH": 16784,
        "BSTAR": 0,
        "MEAN_MOTION_DOT": -5.6e-07,
        "MEAN_MOTION_DDOT": 0
    }
]
