{"epoch":1784762836,"count":18316,"objects":[{"id":"26566","name":"COSMOS 2374 (GLONASS)","type":"PAYLOAD","l1":"1 26566U 00063C   26202.24608056 -.00000087  00000-0  00000-0 0  9993","l2":"2 26566  65.1540 312.4075 0079507 208.7174 149.6248  2.13099753200473"},{"id":"26987","name":"COSMOS 2382 (GLONASS)","type":"PAYLOAD","l1":"1 26987U 01053A   26199.17182642 -.00000046  00000-0  00000-0 0  9990","l2":"2 26987  64.1069  56.3467 0003157 200.5961 340.8377  2.13104895191613"},{"id":"26988","name":"COSMOS 2381 (GLONASS)","type":"PAYLOAD","l1":"1 26988U 01053B   26200.00356131 -.00000052  00000-0  00000-0 0  9999","l2":"2 26988  64.1098  56.3449 0045233 228.4205 316.5060  2.13103780191708"},{"id":"26989","name":"COSMOS 2380 (GLONASS)","type":"PAYLOAD","l1":"1 26989U 01053C   26203.03655993 -.00000053  00000-0  00000-0 0  9995","l2":"2 26989  64.1063  56.1882 0006850  47.9335 129.5442  2.13102841191758"},{"id":"27617","name":"COSMOS 2394 (GLONASS)","type":"PAYLOAD","l1":"1 27617U 02060A   26202.85059475 -.00000090  00000-0  00000-0 0  9996","l2":"2 27617  65.4056 314.4841 0001155 298.4185  61.5881  2.13102581183469"},{"id":"27618","name":"COSMOS 2396 (GLONASS)","type":"PAYLOAD","l1":"1 27618U 02060B   26201.37830816 -.00000084  00000-0  00000-0 0  9992","l2":"2 27618  65.4089 314.5307 0003327 166.8266 187.7918  2.13099995183315"},{"id":"27619","name":"COSMOS 2395 (GLONASS)","type":"PAYLOAD","l1":"1 27619U 02060C   26202.28985644 -.00000088  00000-0  00000-0 0  9998","l2":"2 27619  65.4218 314.6399 0012804 243.5826 120.3871  2.13103470183378"},{"id":"28112","name":"COSMOS 2404 (GLONASS)","type":"PAYLOAD","l1":"1 28112U 03056A   26198.80365948 -.00000039  00000-0  00000-0 0  9990","l2":"2 28112  64.2759  61.0047 0050305  69.5251 131.5766  2.13088293175871"},{"id":"28113","name":"COSMOS 2402 (GLONASS)","type":"PAYLOAD","l1":"1 28113U 03056B   26202.52807880 -.00000055  00000-0  00000-0 0  9990","l2":"2 28113  64.2936  60.9859 0051734  72.6500 297.3318  2.13105012175982"},{"id":"28114","name":"COSMOS 2403 (GLONASS)","type":"PAYLOAD","l1":"1 28114U 03056C   26198.17458008 -.00000033  00000-0  00000+0 0  9995","l2":"2 28114  64.2945  61.1921 0061949  63.6173 114.4599  2.13104517175889"},{"id":"28508","name":"COSMOS 2413 (GLONASS)","type":"PAYLOAD","l1":"1 28508U 04053A   26201.31364062 -.00000056  00000-0  00000-0 0  9993","l2":"2 28508  64.2350  59.0767 0004895 233.1881 305.9634  2.13103546167831"},{"id":"28509","name":"COSMOS 2411 (GLONASS)","type":"PAYLOAD","l1":"1 28509U 04053B   26197.12701110 -.00000026  00000-0  00000-0 0  9993","l2":"2 28509  64.2287  59.1693 0003076 245.7677 298.2964  2.13096898167732"},{"id":"28510","name":"COSMOS 2412 (GLONASS)","type":"PAYLOAD","l1":"1 28510U 04053C   26202.24574836 -.00000056  00000-0  00000-0 0  9991","l2":"2 28510  64.2407  59.1195 0006004 237.4714 323.9937  2.13103210167844"}]}